O3B FM10                
1 40348U 14083A   26086.40408949 -.00000028  00000+0  00000+0 0  9994
2 40348   0.0455 334.8109 0002686  31.2091 353.9787  5.00115499205802
O3B FM11                
1 40349U 14083B   26086.41678984 -.00000028  00000+0  00000+0 0  9994
2 40349   0.0578   0.2533 0003039 353.3632   6.3752  5.00115538205823
O3B FM12                
1 40350U 14083C   26088.04299313 -.00000029  00000+0  00000+0 0  9993
2 40350   0.0570 359.6671 0002598   2.7427 357.5867  5.00115880205915
O3B FM9                 
1 40351U 14083D   26088.06982325 -.00000029  00000+0  00000+0 0  9998
2 40351   0.0590   0.2606 0002709   6.2009 353.5374  5.00115908206050
ASTRA 2G                
1 40364U 14089A   26088.12075346  .00000000  00000+0  00000+0 0  9999
2 40364   0.0216   8.2515 0004735  28.4358 221.5062  1.00269236 41167
SES-9                   
1 41380U 16013A   26087.99407775 -.00000364  00000+0  00000+0 0  9990
2 41380   0.0186 244.0927 0001683 159.2929 249.1648  1.00270557 36635
SES-10                  
1 42432U 17017A   26088.03065123 -.00000292  00000+0  00000+0 0  9997
2 42432   0.0338  51.0786 0002652 322.5275 116.9572  1.00272220 32955
SES-15                  
1 42709U 17026A   26087.94699391  .00000040  00000+0  00000+0 0  9993
2 42709   0.0363 335.6778 0000682  15.9177  46.5064  1.00270319  6623
SES-11 (ECHOSTAR 105)   
1 42967U 17063A   26088.16573365 -.00000109  00000+0  00000+0 0  9994
2 42967   0.0463  24.9149 0002575 351.1703 125.1925  1.00271708 30926
SES-14                  
1 43175U 18012B   26088.03446457 -.00000298  00000+0  00000+0 0  9997
2 43175   0.0150 133.0016 0000895 214.2144 164.1253  1.00273709  6223
O3B FM15                
1 43231U 18024A   26087.93670610 -.00000029  00000+0  00000+0 0  9993
2 43231   0.0500   2.8478 0002658   1.3696 355.7802  5.00115661147002
O3B FM16                
1 43232U 18024B   26087.98906969 -.00000029  00000+0  00000+0 0  9998
2 43232   0.0467   5.8797 0002710 357.6765 356.4411  5.00115912146928
O3B FM14                
1 43233U 18024C   26088.02983575 -.00000029  00000+0  00000+0 0  9993
2 43233   0.0453   5.2544 0002856   1.8335 352.9115  5.00115648146940
O3B FM13                
1 43234U 18024D   26084.69755415 -.00000024  00000+0  00000+0 0  9998
2 43234   0.0470 335.8508 0003967 348.6026  35.5167  5.00115556146887
SES-12                  
1 43488U 18049A   26088.06271804 -.00000289  00000+0  00000+0 0  9999
2 43488   0.0425  31.2140 0001998 271.9611   0.8604  1.00271607 28614
O3B FM20                
1 44112U 19020A   26087.85597447 -.00000029  00000+0  00000+0 0  9996
2 44112   0.0528   0.8112 0002697 355.2694   3.9126  5.00115487127551
O3B FM19                
1 44113U 19020B   26088.08298005 -.00000029  00000+0  00000+0 0  9991
2 44113   0.0579 352.9847 0004062  13.0204 353.9951  5.00115272127431
